[{"OBJECT_NAME":"STARLINK-3839","OBJECT_ID":"2022-049AF","EPOCH":"2026-03-09T23:01:34.141152","MEAN_MOTION":15.08835969,"ECCENTRICITY":0.00013007,"INCLINATION":53.2162,"RA_OF_ASC_NODE":57.9097,"ARG_OF_PERICENTER":88.8633,"MEAN_ANOMALY":271.2508,"EPHEMERIS_TYPE":0,"CLASSIFICATION_TYPE":"U","NORAD_CAT_ID":52480,"ELEMENT_SET_NO":999,"REV_AT_EPOCH":21229,"BSTAR":-0.00043773734,"MEAN_MOTION_DOT":-7.247e-5,"MEAN_MOTION_DDOT":0},{"OBJECT_NAME":"METOP-A","OBJECT_ID":"2006-044A","EPOCH":"2026-03-09T22:42:22.748832","MEAN_MOTION":14.75579804,"ECCENTRICITY":0.01753829,"INCLINATION":98.3242,"RA_OF_ASC_NODE":172.6157,"ARG_OF_PERICENTER":26.1658,"MEAN_ANOMALY":115.682,"EPHEMERIS_TYPE":0,"CLASSIFICATION_TYPE":"U","NORAD_CAT_ID":29499,"ELEMENT_SET_NO":999,"REV_AT_EPOCH":1081,"BSTAR":0.00024290621,"MEAN_MOTION_DOT":2.062e-5,"MEAN_MOTION_DDOT":0}]
